NORAD_CAT_ID,OBJECT_NAME,OBJECT_TYPE,EPOCH,MEAN_MOTION,ECCENTRICITY,INCLINATION,RA_OF_ASC_NODE,ARG_OF_PERICENTER,MEAN_ANOMALY,BSTAR,MEAN_MOTION_DOT,MEAN_MOTION_DDOT,TLE_LINE0,TLE_LINE1,TLE_LINE2,SEMIMAJOR_AXIS,PERIOD,APOGEE,PERIGEE,DECAYED
49148.0,STARLINK-3048,PAYLOAD,2024-07-12 21:14:31,14.98331613,0.0003068,70.0008,359.3679,268.2214,91.8594,6.8449e-05,7.24e-06,0.0,0 STARLINK-3048,1 49148U 21082U   24194.88508760  .00000724  00000-0  68449-4 0  9999,2 49148  70.0008 359.3679 0003068 268.2214  91.8594 14.98331613155878,6950.188,96.107,574.185,569.921,0.0
49148.0,STARLINK-3048,PAYLOAD,2024-07-13 14:52:00,14.98333571,0.0003011,70.0011,357.5164,268.3248,91.7566,1.2467e-05,5.6e-07,0.0,0 STARLINK-3048,1 49148U 21082U   24195.61944725  .00000056  00000-0  12467-4 0  9993,2 49148  70.0011 357.5164 0003011 268.3248  91.7566 14.98333571155982,6950.182,96.107,574.14,569.954,0.0
49148.0,STARLINK-3048,PAYLOAD,2024-07-13 19:40:24,14.98336323,0.0002956,70.0013,357.0116,267.9941,92.088,4.2822e-05,4.18e-06,0.0,0 STARLINK-3048,1 49148U 21082U   24195.81972454  .00000418  00000-0  42822-4 0  9995,2 49148  70.0013 357.0116 0002956 267.9941  92.0880 14.98336323157149,6950.173,96.107,574.093,569.984,0.0
49148.0,STARLINK-3048,PAYLOAD,2024-07-13 21:16:32,14.98336328,0.0002957,70.0013,356.8433,268.1294,91.9527,4.2232e-05,4.11e-06,0.0,0 STARLINK-3048,1 49148U 21082U   24195.88648432  .00000411  00000-0  42232-4 0  9996,2 49148  70.0013 356.8433 0002957 268.1294  91.9527 14.98336328156020,6950.173,96.107,574.093,569.983,0.0
49148.0,STARLINK-3048,PAYLOAD,2024-07-14 14:54:01,14.98331587,0.000295,70.0015,354.9915,269.1257,90.9564,8.1529e-05,8.8e-06,0.0,0 STARLINK-3048,1 49148U 21082U   24196.62084544  .00000880  00000-0  81529-4 0  9999,2 49148  70.0015 354.9915 0002950 269.1257  90.9564 14.98331587156133,6950.188,96.107,574.103,570.003,0.0
49148.0,STARLINK-3048,PAYLOAD,2024-07-14 19:42:24,14.98334669,0.0002921,70.0015,354.4865,269.5428,90.5396,0.00011378,1.265e-05,0.0,0 STARLINK-3048,1 49148U 21082U   24196.82112264  .00001265  00000-0  11378-3 0  9994,2 49148  70.0015 354.4865 0002921 269.5428  90.5396 14.98334669157295,6950.178,96.107,574.074,570.013,0.0
49148.0,STARLINK-3048,PAYLOAD,2024-07-15 14:56:02,14.98330271,0.0002831,70.0017,352.4661,267.0364,93.0471,2.8109e-05,2.42e-06,0.0,0 STARLINK-3048,1 49148U 21082U   24197.62224683  .00000242  00000-0  28109-4 0  9997,2 49148  70.0017 352.4661 0002831 267.0364  93.0471 14.98330271156286,6950.192,96.107,574.025,570.089,0.0
49148.0,STARLINK-3048,PAYLOAD,2024-07-15 18:08:18,14.98330687,0.000285,70.0017,352.1297,266.2925,93.7908,2.7337e-05,2.33e-06,0.0,0 STARLINK-3048,1 49148U 21082U   24197.75576634  .00000233  00000-0  27337-4 0  9999,2 49148  70.0017 352.1297 0002850 266.2925  93.7908 14.98330687157434,6950.191,96.107,574.037,570.075,0.0
49148.0,STARLINK-3048,PAYLOAD,2024-07-15 19:44:26,14.98330174,0.0002849,70.0017,351.9613,266.3576,93.7257,1.7684e-05,1.18e-06,0.0,0 STARLINK-3048,1 49148U 21082U   24197.82252628  .00000118  00000-0  17684-4 0  9997,2 49148  70.0017 351.9613 0002849 266.3576  93.7257 14.98330174156318,6950.192,96.107,574.037,570.077,0.0
49148.0,STARLINK-3048,PAYLOAD,2024-07-16 14:58:02,14.98331854,0.000302,70.0015,349.9415,266.866,93.2153,6.1886e-05,6.46e-06,0.0,0 STARLINK-3048,1 49148U 21082U   24198.62364356  .00000646  00000-0  61886-4 0  9997,2 49148  70.0015 349.9415 0003020 266.8660  93.2153 14.98331854156433,6950.187,96.107,574.151,569.953,0.0
49148.0,STARLINK-3048,PAYLOAD,2024-07-16 19:46:26,14.98337483,0.0002954,70.0016,349.4364,267.0648,93.0173,8.1558e-05,8.8e-06,0.0,0 STARLINK-3048,1 49148U 21082U   24198.82391918  .00000880  00000-0  81558-4 0  9991,2 49148  70.0016 349.4364 0002954 267.0648  93.0173 14.98337483157598,6950.17,96.107,574.088,569.982,0.0
49148.0,STARLINK-3048,PAYLOAD,2024-07-17 11:47:48,14.98321633,0.0002954,70.0021,347.7527,268.5147,91.5674,5.9047e-05,6.11e-06,0.0,0 STARLINK-3048,1 49148U 21082U   24199.49153094  .00000611  00000-0  59047-4 0  9996,2 49148  70.0021 347.7527 0002954 268.5147  91.5674 14.98321633157696,6950.219,96.108,574.137,570.031,0.0
49148.0,STARLINK-3048,PAYLOAD,2024-07-17 13:23:56,14.98321327,0.0002967,70.002,347.5842,268.9239,91.158,4.5045e-05,4.44e-06,0.0,0 STARLINK-3048,1 49148U 21082U   24199.55829165  .00000444  00000-0  45045-4 0  9999,2 49148  70.0020 347.5842 0002967 268.9239  91.1580 14.98321327156571,6950.22,96.108,574.147,570.023,0.0
49148.0,STARLINK-3048,PAYLOAD,2024-07-17 19:48:28,14.98325742,0.0002662,70.0021,346.9112,264.1917,95.8939,4.4198e-05,4.34e-06,0.0,0 STARLINK-3048,1 49148U 21082U   24199.82532954  .00000434  00000-0  44198-4 0  9993,2 49148  70.0021 346.9112 0002662 264.1917  95.8939 14.98325742156617,6950.206,96.107,573.921,570.221,0.0
49148.0,STARLINK-3048,PAYLOAD,2024-07-18 11:49:49,14.98328632,0.000285,70.0015,345.2271,269.8321,90.2512,4.0374e-05,3.89e-06,0.0,0 STARLINK-3048,1 49148U 21082U   24200.49292884  .00000389  00000-0  40374-4 0  9995,2 49148  70.0015 345.2271 0002850 269.8321  90.2512 14.98328632157841,6950.197,96.107,574.043,570.081,0.0
49148.0,STARLINK-3048,PAYLOAD,2024-07-18 13:25:57,14.98328625,0.0002856,70.0015,345.0588,269.761,90.3222,4.0929e-05,3.95e-06,0.0,0 STARLINK-3048,1 49148U 21082U   24200.55968893  .00000395  00000-0  40929-4 0  9995,2 49148  70.0015 345.0588 0002856 269.7610  90.3222 14.98328625156723,6950.197,96.107,574.047,570.077,0.0
49148.0,STARLINK-3048,PAYLOAD,2024-07-18 19:50:29,14.98316172,0.0002383,70.0017,344.3865,265.2804,94.8083,0.00043389,5.086e-05,0.0,0 STARLINK-3048,1 49148U 21082U   24200.82673011  .00005086  00000-0  43389-3 0  9994,2 49148  70.0017 344.3865 0002383 265.2804  94.8083 14.98316172156768,6950.236,96.108,573.757,570.444,0.0
49148.0,STARLINK-3048,PAYLOAD,2024-07-19 11:51:50,14.98309701,0.0002768,70.002,342.7047,266.7299,93.3543,0.00051613,6.067e-05,0.0,0 STARLINK-3048,1 49148U 21082U   24201.49432965  .00006067  00000-0  51613-3 0  9998,2 49148  70.0020 342.7047 0002768 266.7299  93.3543 14.98309701157998,6950.256,96.108,574.044,570.197,0.0
49148.0,STARLINK-3048,PAYLOAD,2024-07-19 13:27:58,14.9829868,0.000288,70.0021,342.5363,265.0547,95.0283,0.00071116,8.396e-05,0.0,0 STARLINK-3048,1 49148U 21082U   24201.56109370  .00008396  00000-0  71116-3 0  9994,2 49148  70.0021 342.5363 0002880 265.0547  95.0283 14.98298680156870,6950.29,96.109,574.156,570.153,0.0
49148.0,STARLINK-3048,PAYLOAD,2024-07-19 18:16:21,14.98333936,0.0002645,70.0022,342.0314,264.1481,95.9377,0.00017325,1.975e-05,0.0,0 STARLINK-3048,1 49148U 21082U   24201.76136195  .00001975  00000-0  17325-3 0  9999,2 49148  70.0022 342.0314 0002645 264.1481  95.9377 14.98333936158035,6950.181,96.107,573.884,570.207,0.0
49148.0,STARLINK-3048,PAYLOAD,2024-07-20 11:53:50,14.98330973,0.0002602,70.0024,340.1803,263.2468,96.8395,3.6123e-05,3.38e-06,0.0,0 STARLINK-3048,1 49148U 21082U   24202.49572682  .00000338  00000-0  36123-4 0  9995,2 49148  70.0024 340.1803 0002602 263.2468  96.8395 14.98330973158147,6950.19,96.107,573.863,570.246,0.0
49148.0,STARLINK-3048,PAYLOAD,2024-07-20 13:29:58,14.98330819,0.000261,70.0024,340.012,263.3634,96.7228,3.2098e-05,2.9e-06,0.0,0 STARLINK-3048,1 49148U 21082U   24202.56248689  .00000290  00000-0  32098-4 0  9994,2 49148  70.0024 340.0120 0002610 263.3634  96.7228 14.98330819157022,6950.19,96.107,573.869,570.241,0.0
49148.0,STARLINK-3048,PAYLOAD,2024-07-20 18:18:22,14.98334373,0.000257,70.0025,339.5073,262.5531,97.5336,6.8569e-05,7.25e-06,0.0,0 STARLINK-3048,1 49148U 21082U   24202.76276333  .00000725  00000-0  68569-4 0  9998,2 49148  70.0025 339.5073 0002570 262.5531  97.5336 14.98334373157056,6950.179,96.107,573.831,570.258,0.0
49148.0,STARLINK-3048,PAYLOAD,2024-07-21 02:19:02,14.98353041,0.000261,70.0027,338.6653,268.405,91.681,-0.0003464,-4.226e-05,0.0,0 STARLINK-3048,1 49148U 21082U   24203.09655776 -.00004226  00000-0 -34640-3 0  9991,2 49148  70.0027 338.6653 0002610 268.4050  91.6810 14.98353041158234,6950.122,96.106,573.801,570.173,0.0
49148.0,STARLINK-3048,PAYLOAD,2024-07-21 11:55:51,14.98330928,0.0002706,70.0026,337.6559,264.8123,95.2727,3.4249e-05,3.16e-06,0.0,0 STARLINK-3048,1 49148U 21082U   24203.49712484  .00000316  00000-0  34249-4 0  9995,2 49148  70.0026 337.6559 0002706 264.8123  95.2727 14.98330928158296,6950.19,96.107,573.936,570.174,0.0
49148.0,STARLINK-3048,PAYLOAD,2024-07-21 15:08:07,14.98329079,0.000299,70.0026,337.3196,268.5623,91.5194,1.8199e-05,1.24e-06,0.0,0 STARLINK-3048,1 49148U 21082U   24203.63064623  .00000124  00000-0  18199-4 0  9999,2 49148  70.0026 337.3196 0002990 268.5623  91.5194 14.98329079157180,6950.196,96.107,574.139,569.983,0.0
49148.0,STARLINK-3048,PAYLOAD,2024-07-21 18:20:23,14.98330007,0.0002757,70.0026,336.9827,265.3226,94.7618,1.8626e-05,1.29e-06,0.0,0 STARLINK-3048,1 49148U 21082U   24203.76416560  .00000129  00000-0  18626-4 0  9994,2 49148  70.0026 336.9827 0002757 265.3226  94.7618 14.98330007157203,6950.193,96.107,573.974,570.142,0.0
49148.0,STARLINK-3048,PAYLOAD,2024-07-22 10:21:44,14.98324544,0.0002652,70.0025,335.2996,264.2933,95.7924,0.00012602,1.411e-05,0.0,0 STARLINK-3048,1 49148U 21082U   24204.43176636  .00001411  00000-0  12602-3 0  9998,2 49148  70.0025 335.2996 0002652 264.2933  95.7924 14.98324544157309,6950.21,96.107,573.918,570.232,0.0
49148.0,STARLINK-3048,PAYLOAD,2024-07-22 18:22:24,14.98331236,0.0002656,70.0025,334.4581,264.7851,95.3005,3.791e-05,3.59e-06,0.0,0 STARLINK-3048,1 49148U 21082U   24204.76556427  .00000359  00000-0  37910-4 0  9994,2 49148  70.0025 334.4581 0002656 264.7851  95.3005 14.98331236158480,6950.189,96.107,573.9,570.208,0.0
49148.0,STARLINK-3048,PAYLOAD,2024-07-23 15:12:09,14.98335772,0.0002708,70.0026,332.2698,265.3937,94.6913,0.00012442,1.392e-05,0.0,0 STARLINK-3048,1 49148U 21082U   24205.63343868  .00001392  00000-0  12442-3 0  9994,2 49148  70.0026 332.2698 0002708 265.3937  94.6913 14.98335772157484,6950.175,96.107,573.922,570.158,0.0
